ONEWEB-0395             
1 50475U 21132G   26196.93092368  .00000151  00000+0  39056-3 0  9996
2 50475  87.8884  15.3425 0002009  84.8175 275.3182 13.11419384219487
ONEWEB-0396             
1 50476U 21132H   26196.92444257 -.00000008  00000+0 -52661-4 0  9995
2 50476  87.9198 329.7409 0001745  95.7869 264.3462 13.18686884225426
ONEWEB-0397             
1 50477U 21132J   26196.86373696 -.00000016  00000+0 -73175-4 0  9999
2 50477  87.9198 329.7531 0001637  97.7860 262.3458 13.18686575225392
ONEWEB-0398             
1 50478U 21132K   26196.89870904 -.00000343  00000+0 -10032-2 0  9991
2 50478  87.8890  15.3419 0002161  88.7097 271.4279 13.11415375219373
ONEWEB-0399             
1 50479U 21132L   26196.96145212  .00000186  00000+0  49022-3 0  9992
2 50479  87.8892  15.3405 0001514  77.9707 282.1591 13.11415025219378
ONEWEB-0400             
1 50480U 21132M   26196.91769058  .00000001  00000+0 -31339-4 0  9999
2 50480  87.9199 329.7321 0002050  97.0509 263.0857 13.18684922225392
ONEWEB-0401             
1 50481U 21132N   26196.88734792 -.00000049  00000+0 -15601-3 0  9999
2 50481  87.9201 329.7358 0001772 105.4551 254.6777 13.18686314225392
ONEWEB-0402             
1 50482U 21132P   26196.85024184  .00000038  00000+0  64772-4 0  9994
2 50482  87.9196 329.7319 0001582 110.3601 249.7701 13.18687529225417
ONEWEB-0403             
1 50483U 21132Q   26196.87554445  .00000044  00000+0  79390-4 0  9994
2 50483  87.9196 329.7514 0001819  94.1283 266.0057 13.18686506225378
ONEWEB-0404             
1 50484U 21132R   26196.86650294  .00000555  00000+0  15302-2 0  9991
2 50484  87.8887  15.3563 0001829  80.7593 279.3742 13.11417202219451
ONEWEB-0405             
1 50485U 21132S   26196.88903102 -.00000068  00000+0 -20620-3 0  9994
2 50485  87.9203 329.7341 0002384  97.0208 263.1195 13.18684427225779
ONEWEB-0406             
1 50486U 21132T   26196.88059700  .00000039  00000+0  65701-4 0  9997
2 50486  87.9194 329.7501 0001739  81.4251 278.7078 13.18686709225402
ONEWEB-0407             
1 50487U 21132U   26196.87383971 -.00000017  00000+0 -76533-4 0  9990
2 50487  87.9199 329.7449 0001980 103.9624 256.1728 13.18687949225343
ONEWEB-0409             
1 50488U 21132V   26196.94110757  .00000504  00000+0  13859-2 0  9998
2 50488  87.8891  15.3309 0001925  82.5430 277.5917 13.11417675219352
ONEWEB-0412             
1 50489U 21132W   26196.93792822  .00000029  00000+0  40070-4 0  9996
2 50489  87.9195 329.7396 0001671 104.8850 255.2467 13.18686763225444
ONEWEB-0413             
1 50490U 21132X   26196.86710605  .00000085  00000+0  18175-3 0  9991
2 50490  87.9187 329.7502 0001821 107.4201 252.7131 13.18687989225375
ONEWEB-0414             
1 50491U 21132Y   26196.85193377  .00000035  00000+0  56271-4 0  9997
2 50491  87.9198 329.7380 0001713  99.1215 261.0111 13.18687074225404
ONEWEB-0417             
1 50492U 21132Z   26196.93623781  .00000031  00000+0  45585-4 0  9996
2 50492  87.9192 329.7384 0001863  91.9469 268.1877 13.18686864225391
ONEWEB-0418             
1 50493U 21132AA  26196.87034240  .00000049  00000+0  90765-4 0  9995
2 50493  87.9194 329.7527 0001882  89.9332 270.2016 13.18685722225447
ONEWEB-0419             
1 50494U 21132AB  26196.88937826  .00000023  00000+0  25603-4 0  9990
2 50494  87.9198 329.7498 0002088  92.8498 267.2873 13.18665742225362
ONEWEB-0420             
1 50495U 21132AC  26196.85360768 -.00000111  00000+0 -31523-3 0  9990
2 50495  87.9189 329.7570 0001989 103.3847 256.7507 13.18685684225352
ONEWEB-0421             
1 50496U 21132AD  26196.92276020 -.00007454  00000+0 -18945-1 0  9994
2 50496  87.9192 329.7415 0001656  96.8737 263.2583 13.18724857225409
ONEWEB-0424             
1 50497U 21132AE  26196.88397426 -.00000022  00000+0 -88014-4 0  9995
2 50497  87.9199 329.7490 0002207  93.3041 266.8343 13.18686458225422
ONEWEB-0426             
1 50498U 21132AF  26196.91854220  .00000019  00000+0  15818-4 0  9996
2 50498  87.9198 329.7329 0001338  82.6856 277.4428 13.18686246225373
ONEWEB-0427             
1 50499U 21132AG  26196.88228927  .00000041  00000+0  71070-4 0  9999
2 50499  87.9199 329.7295 0001816  91.6960 268.4381 13.18686231225398
ONEWEB-0429             
1 50500U 21132AH  26196.86878618  .00000063  00000+0  12717-3 0  9994
2 50500  87.9189 329.7546 0001928 101.8814 258.2534 13.18687105225360
ONEWEB-0430             
1 50501U 21132AJ  26196.85698067  .00000074  00000+0  15594-3 0  9990
2 50501  87.9191 329.7553 0002102 103.6646 256.4720 13.18688646225403
ONEWEB-0432             
1 50502U 21132AK  26196.91587729  .00000003  00000+0 -24058-4 0  9999
2 50502  87.9197 329.7300 0002338  97.3947 262.7451 13.18686381225364
ONEWEB-0440             
1 50503U 21132AL  26196.87722174  .00000036  00000+0  59033-4 0  9996
2 50503  87.9198 329.7494 0001718 107.3509 252.7811 13.18686866225353
ONEWEB-0450             
1 50504U 21132AM  26196.87061854  .00000038  00000+0  63909-4 0  9997
2 50504  87.9189 329.7528 0001996 102.7287 257.4069 13.18686978225386
