OBJECT_NAME,OBJECT_ID,EPOCH,MEAN_MOTION,ECCENTRICITY,INCLINATION,RA_OF_ASC_NODE,ARG_OF_PERICENTER,MEAN_ANOMALY,EPHEMERIS_TYPE,CLASSIFICATION_TYPE,NORAD_CAT_ID,ELEMENT_SET_NO,REV_AT_EPOCH,BSTAR,MEAN_MOTION_DOT,MEAN_MOTION_DDOT
ONEWEB-0395,2021-132G,2026-07-15T22:20:31.805952,13.11419384,.00020099,87.8884,15.3425,84.8175,275.3182,0,U,50475,999,21948,.3905591E-3,.151E-5,0
ONEWEB-0396,2021-132H,2026-07-15T22:11:11.838048,13.18686884,.0001745,87.9198,329.7409,95.7869,264.3462,0,U,50476,999,22542,-.52660766E-4,-.8E-7,0
ONEWEB-0397,2021-132J,2026-07-15T20:43:46.873344,13.18686575,.00016379,87.9198,329.7531,97.7860,262.3458,0,U,50477,999,22539,-.73175262E-4,-.16E-6,0
ONEWEB-0398,2021-132K,2026-07-15T21:34:08.461056,13.11415375,.00021615,87.8890,15.3419,88.7097,271.4279,0,U,50478,999,21937,-.10031606E-2,-.343E-5,0
ONEWEB-0399,2021-132L,2026-07-15T23:04:29.463168,13.11415025,.0001514,87.8892,15.3405,77.9707,282.1591,0,U,50479,999,21937,.49021985E-3,.186E-5,0
ONEWEB-0400,2021-132M,2026-07-15T22:01:28.466112,13.18684922,.00020508,87.9199,329.7321,97.0509,263.0857,0,U,50480,999,22539,-.31338663E-4,.1E-7,0
ONEWEB-0401,2021-132N,2026-07-15T21:17:46.860288,13.18686314,.00017723,87.9201,329.7358,105.4551,254.6777,0,U,50481,999,22539,-.15600793E-3,-.49E-6,0
ONEWEB-0402,2021-132P,2026-07-15T20:24:20.894976,13.18687529,.00015821,87.9196,329.7319,110.3601,249.7701,0,U,50482,999,22541,.64771818E-4,.38E-6,0
ONEWEB-0403,2021-132Q,2026-07-15T21:00:47.040480,13.18686506,.0001819,87.9196,329.7514,94.1283,266.0057,0,U,50483,999,22537,.7939037E-4,.44E-6,0
ONEWEB-0404,2021-132R,2026-07-15T20:47:45.854016,13.11417202,.00018296,87.8887,15.3563,80.7593,279.3742,0,U,50484,999,21945,.15302078E-2,.555E-5,0
ONEWEB-0405,2021-132S,2026-07-15T21:20:12.280128,13.18684427,.00023841,87.9203,329.7341,97.0208,263.1195,0,U,50485,999,22577,-.20619593E-3,-.68E-6,0
ONEWEB-0406,2021-132T,2026-07-15T21:08:03.580800,13.18686709,.00017398,87.9194,329.7501,81.4251,278.7078,0,U,50486,999,22540,.6570126E-4,.39E-6,0
ONEWEB-0407,2021-132U,2026-07-15T20:58:19.750944,13.18687949,.00019803,87.9199,329.7449,103.9624,256.1728,0,U,50487,999,22534,-.7653304E-4,-.17E-6,0
ONEWEB-0409,2021-132V,2026-07-15T22:35:11.694048,13.11417675,.00019252,87.8891,15.3309,82.5430,277.5917,0,U,50488,999,21935,.13859183E-2,.504E-5,0
ONEWEB-0412,2021-132W,2026-07-15T22:30:36.998208,13.18686763,.00016713,87.9195,329.7396,104.8850,255.2467,0,U,50489,999,22544,.40069802E-4,.29E-6,0
ONEWEB-0413,2021-132X,2026-07-15T20:48:37.962720,13.18687989,.00018211,87.9187,329.7502,107.4201,252.7131,0,U,50490,999,22537,.18175056E-3,.85E-6,0
ONEWEB-0414,2021-132Y,2026-07-15T20:26:47.077728,13.18687074,.00017137,87.9198,329.7380,99.1215,261.0111,0,U,50491,999,22540,.56270939E-4,.35E-6,0
ONEWEB-0417,2021-132Z,2026-07-15T22:28:10.946784,13.18686864,.00018635,87.9192,329.7384,91.9469,268.1877,0,U,50492,999,22539,.45584678E-4,.31E-6,0
ONEWEB-0418,2021-132AA,2026-07-15T20:53:17.583360,13.18685722,.00018822,87.9194,329.7527,89.9332,270.2016,0,U,50493,999,22544,.90765305E-4,.49E-6,0
ONEWEB-0419,2021-132AB,2026-07-15T21:20:42.281664,13.18665742,.00020881,87.9198,329.7498,92.8498,267.2873,0,U,50494,999,22536,.25602733E-4,.23E-6,0
ONEWEB-0420,2021-132AC,2026-07-15T20:29:11.703552,13.18685684,.00019897,87.9189,329.7570,103.3847,256.7507,0,U,50495,999,22535,-.31522503E-3,-.111E-5,0
ONEWEB-0421,2021-132AD,2026-07-15T22:08:46.481280,13.18724857,.0001656,87.9192,329.7415,96.8737,263.2583,0,U,50496,999,22540,-.18945189E-1,-.7454E-4,0
ONEWEB-0424,2021-132AE,2026-07-15T21:12:55.376064,13.18686458,.00022079,87.9199,329.7490,93.3041,266.8343,0,U,50497,999,22542,-.88013897E-4,-.22E-6,0
ONEWEB-0426,2021-132AF,2026-07-15T22:02:42.046080,13.18686246,.00013384,87.9198,329.7329,82.6856,277.4428,0,U,50498,999,22537,.15818316E-4,.19E-6,0
ONEWEB-0427,2021-132AG,2026-07-15T21:10:29.792928,13.18686231,.00018168,87.9199,329.7295,91.6960,268.4381,0,U,50499,999,22539,.71069712E-4,.41E-6,0
ONEWEB-0429,2021-132AH,2026-07-15T20:51:03.125952,13.18687105,.00019288,87.9189,329.7546,101.8814,258.2534,0,U,50500,999,22536,.12717168E-3,.63E-6,0
ONEWEB-0430,2021-132AJ,2026-07-15T20:34:03.129888,13.18688646,.00021025,87.9191,329.7553,103.6646,256.4720,0,U,50501,999,22540,.15593642E-3,.74E-6,0
ONEWEB-0432,2021-132AK,2026-07-15T21:58:51.797856,13.18686381,.00023388,87.9197,329.7300,97.3947,262.7451,0,U,50502,999,22536,-.24058221E-4,.3E-7,0
ONEWEB-0440,2021-132AL,2026-07-15T21:03:11.958336,13.18686866,.0001718,87.9198,329.7494,107.3509,252.7811,0,U,50503,999,22535,.59033022E-4,.36E-6,0
ONEWEB-0450,2021-132AM,2026-07-15T20:53:41.441856,13.18686978,.00019962,87.9189,329.7528,102.7287,257.4069,0,U,50504,999,22538,.63909478E-4,.38E-6,0
